STARLINK-4621           
1 53676U 22105AE  26196.55889103  .00000157  00000+0  14759-4 0  9992
2 53676  97.2833  74.0852 0001690  91.9607 268.1815 15.05656655212476
SHERPA-LTC2             
1 53754U 22107BG  26196.94999643  .00001905  00000+0  11040-3 0  9996
2 53754  53.2372  98.5529 0392888 306.8353  49.7183 14.69921414206777
CENTISPACE-1 S3         
1 53757U 22108A   26196.86688646  .00000111  00000+0  60475-4 0  9994
2 53757  53.5336 296.6646 0010767  66.1710 294.0393 14.61283675205724
CENTISPACE-1 S4         
1 53758U 22108B   26196.83771887  .00000000  00000+0  37868-4 0  9999
2 53758  53.5310 294.1666 0010065  55.4831 304.7094 14.61971601205751
BLUEWALKER-3            
1 53807U 22111AL  26196.50411065  .00003136  00000+0  91224-4 0  9990
2 53807  53.2283 260.9974 0004559 267.8517  92.1966 15.38612235214561
YUNHAI-1 03             
1 53877U 22115A   26196.96025166  .00000218  00000+0  95971-4 0  9995
2 53877  98.5544 194.7436 0004109 337.0031  23.0969 14.32737044199634
CENTISPACE-1 S5         
1 54020U 22126A   26196.91551942  .00000341  00000+0  10258-3 0  9990
2 54020  54.9990  97.9940 0014347 125.8106 234.4224 14.63057466201241
CENTISPACE-1 S6         
1 54021U 22126B   26196.92310582  .00000261  00000+0  88319-4 0  9990
2 54021  54.9992  99.9639 0016150 127.0943 233.1530 14.62317415201202
OTB-3-GAZELLE           
1 54023U 22127A   26196.91181014  .00000057  00000+0  30207-4 0  9994
2 54023  98.3960 188.1808 0014453 100.9803 259.3014 14.42684165198501
ASO-S                   
1 54029U 22129A   26196.98832138  .00000090  00000+0  33201-4 0  9993
2 54029  98.2756 201.6575 0014507   9.9068 350.2411 14.52075093199601
HJ-2E                   
1 54035U 22132A   26197.00569088  .00003891  00000+0  16930-3 0  9990
2 54035  97.3800 200.8714 0018025 267.2866  92.6307 15.22700546208808
COSMOS 2561             
1 54109U 22137A   26196.91717912  .00007989  00000+0  13232-3 0  9991
2 54109  96.9169 254.8543 0008169 277.5866  82.4459 15.52385270210808
GONETS-M 23             
1 54150U 22139A   26196.91968396  .00000024  00000+0  10140-3 0  9991
2 54150  82.5095 330.4381 0022157 156.9525 203.2553 12.42891947169214
GONETS-M 24             
1 54151U 22139B   26196.89274409  .00000025  00000+0  10859-3 0  9992
2 54151  82.5011 329.4951 0017234 166.5788 193.5753 12.42892540169215
GONETS-M 25             
1 54152U 22139C   26196.87917876  .00000017  00000+0  49314-4 0  9993
2 54152  82.5077 330.2053 0021163 165.6084 194.5603 12.42890882169218
SKIF-D                  
1 54153U 22139D   26196.03740826  .00000013  00000+0  00000+0 0  9991
2 54153  89.9489  96.6602 0007454 187.5838 172.4779  5.00430900 65500
MATS                    
1 54227U 22147A   26196.96236760  .00001731  00000+0  12447-3 0  9991
2 54227  97.6830 198.4375 0014096 101.0257 259.2556 15.05504776202095
EOS-6 (OCEANSAT-3)      
1 54361U 22158A   26196.92877650  .00000102  00000+0  40123-4 0  9991
2 54361  98.3550 294.7426 0000459 146.9080 213.2141 14.46984550191990
DONGPO 09               
1 54685U 22167D   26196.93179567  .00006468  00000+0  18146-3 0  9993
2 54685  97.6916   9.2381 0002746  50.9009 309.2478 15.36943587199860
DONGPO 08               
1 54686U 22167E   26196.96322226  .00005729  00000+0  17548-3 0  9993
2 54686  97.6882   6.3115 0009239  71.5716 288.6530 15.34193002199736
2022-167F               
1 54687U 22167F   26196.92858399  .01409294  25585-5  69060-3 0  9998
2 54687  97.5967  28.8723 0008087 254.3796 105.6600 16.21013424201436
DONGPO 10               
1 54689U 22167H   26196.95461961  .00005901  00000+0  17625-3 0  9993
2 54689  97.6962   8.3222 0004907  25.9489 334.1999 15.35009629199778
JILIN-1 GAOFEN 03D48    
1 54695U 22167P   26196.93772185  .00006124  00000+0  17825-3 0  9991
2 54695  97.6897   7.6929 0006383  27.7739 332.3843 15.35801954199809
STAR VIBE               
1 55009U 23001A   26196.89923920  .00008024  00000+0  18176-3 0  9990
2 55009  97.3154 261.4919 0005423  29.1323 331.0227 15.43364673196653
BRO-8                   
1 55011U 23001C   26196.90683688  .00020141  00000+0  35076-3 0  9991
2 55011  97.3186 262.5376 0004797  37.3914 322.7671 15.50779326196653
CONNECTA T1.2           
1 55012U 23001D   26196.80066489  .00026949  00000+0  43418-3 0  9996
2 55012  97.3240 268.0391 0003626   3.7336 356.3943 15.52914784196980
BIRKELAND               
1 55015U 23001G   26196.92541255  .00004794  00000+0  12007-3 0  9995
2 55015  97.3334 264.9761 0006318  18.7548 341.3930 15.40544704196770
ION SCV-008             
1 55051U 23001AU  26196.84190736  .00003416  00000+0  12429-3 0  9998
2 55051  97.5723 293.6465 0013183 270.6145  89.3584 15.28884533195714
ION SCV-007             
1 55060U 23001BD  26196.16631742  .00000188  00000+0  33458-4 0  9999
2 55060  97.8993 258.6244 0011074 242.2989 117.7098 14.77576135190383
HUYGENS                 
1 55093U 23001CN  26196.92549744  .00004840  00000+0  12116-3 0  9995
2 55093  97.3237 264.1684 0008326 350.1928   9.9155 15.40544543196799
