OBJECT_NAME,OBJECT_ID,EPOCH,MEAN_MOTION,ECCENTRICITY,INCLINATION,RA_OF_ASC_NODE,ARG_OF_PERICENTER,MEAN_ANOMALY,EPHEMERIS_TYPE,CLASSIFICATION_TYPE,NORAD_CAT_ID,ELEMENT_SET_NO,REV_AT_EPOCH,BSTAR,MEAN_MOTION_DOT,MEAN_MOTION_DDOT
STARLINK-4621,2022-105AE,2026-07-15T13:24:48.184992,15.05656655,.000169,97.2833,74.0852,91.9607,268.1815,0,U,53676,999,21247,.14759E-4,.157E-5,0
SHERPA-LTC2,2022-107BG,2026-07-15T22:47:59.691552,14.69921414,.03928884,53.2372,98.5529,306.8353,49.7183,0,U,53754,999,20677,.11040283E-3,.1905E-4,0
CENTISPACE-1 S3,2022-108A,2026-07-15T20:48:18.990144,14.61283675,.00107674,53.5336,296.6646,66.1710,294.0393,0,U,53757,999,20572,.60475206E-4,.111E-5,0
CENTISPACE-1 S4,2022-108B,2026-07-15T20:06:18.910368,14.61971601,.0010065,53.5310,294.1666,55.4831,304.7094,0,U,53758,999,20575,.37868111E-4,0,0
BLUEWALKER-3,2022-111AL,2026-07-15T12:05:55.160160,15.38612235,.0004559,53.2283,260.9974,267.8517,92.1966,0,U,53807,999,21456,.91224E-4,.3136E-4,0
YUNHAI-1 03,2022-115A,2026-07-15T23:02:45.743424,14.32737044,.00041092,98.5544,194.7436,337.0031,23.0969,0,U,53877,999,19963,.95970984E-4,.218E-5,0
CENTISPACE-1 S5,2022-126A,2026-07-15T21:58:20.877888,14.63057466,.00143473,54.9990,97.9940,125.8106,234.4224,0,U,54020,999,20124,.10258275E-3,.341E-5,0
CENTISPACE-1 S6,2022-126B,2026-07-15T22:09:16.342848,14.62317415,.00161502,54.9992,99.9639,127.0943,233.1530,0,U,54021,999,20120,.88319159E-4,.261E-5,0
OTB-3-GAZELLE,2022-127A,2026-07-15T21:53:00.396096,14.42684165,.00144539,98.3960,188.1808,100.9803,259.3014,0,U,54023,999,19850,.30207234E-4,.57E-6,0
ASO-S,2022-129A,2026-07-15T23:43:10.967232,14.52075093,.00145075,98.2756,201.6575,9.9068,350.2411,0,U,54029,999,19960,.33200708E-4,.9E-6,0
HJ-2E,2022-132A,2026-07-16T00:08:11.692032,15.22700546,.00180256,97.3800,200.8714,267.2866,92.6307,0,U,54035,999,20880,.1692973E-3,.3891E-4,0
COSMOS 2561,2022-137A,2026-07-15T22:00:44.275968,15.52385270,.0008169,96.9169,254.8543,277.5866,82.4459,0,U,54109,999,21080,.13232E-3,.7989E-4,0
GONETS-M 23,2022-139A,2026-07-15T22:04:20.694144,12.42891947,.00221575,82.5095,330.4381,156.9525,203.2553,0,U,54150,999,16921,.10140469E-3,.24E-6,0
GONETS-M 24,2022-139B,2026-07-15T21:25:33.089376,12.42892540,.00172349,82.5011,329.4951,166.5788,193.5753,0,U,54151,999,16921,.10858702E-3,.25E-6,0
GONETS-M 25,2022-139C,2026-07-15T21:06:01.044864,12.42890882,.00211634,82.5077,330.2053,165.6084,194.5603,0,U,54152,999,16921,.49313615E-4,.17E-6,0
SKIF-D,2022-139D,2026-07-15T00:53:52.073664,5.00430900,.0007454,89.9489,96.6602,187.5838,172.4779,0,U,54153,999,6550,0,.13E-6,0
MATS,2022-147A,2026-07-15T23:05:48.560640,15.05504776,.00140969,97.6830,198.4375,101.0257,259.2556,0,U,54227,999,20209,.12447382E-3,.1731E-4,0
EOS-6 (OCEANSAT-3),2022-158A,2026-07-15T22:17:26.289600,14.46984550,.00004591,98.3550,294.7426,146.9080,213.2141,0,U,54361,999,19199,.40123437E-4,.102E-5,0
DONGPO 09,2022-167D,2026-07-15T22:21:47.145888,15.36943587,.00027462,97.6916,9.2381,50.9009,309.2478,0,U,54685,999,19986,.18145716E-3,.6468E-4,0
DONGPO 08,2022-167E,2026-07-15T23:07:02.403264,15.34193002,.00092397,97.6882,6.3115,71.5716,288.6530,0,U,54686,999,19973,.17548461E-3,.5729E-4,0
2022-167F,2022-167F,2026-07-15T22:17:09.656736,16.21013424,.00080873,97.5967,28.8723,254.3796,105.6600,0,U,54687,999,20143,.69060043E-3,.1409294E-1,.2558543E-5
DONGPO 10,2022-167H,2026-07-15T22:54:39.134304,15.35009629,.00049076,97.6962,8.3222,25.9489,334.1999,0,U,54689,999,19977,.17624687E-3,.5901E-4,0
JILIN-1 GAOFEN 03D48,2022-167P,2026-07-15T22:30:19.167840,15.35801954,.00063834,97.6897,7.6929,27.7739,332.3843,0,U,54695,999,19980,.17824615E-3,.6124E-4,0
STAR VIBE,2023-001A,2026-07-15T21:34:54.266880,15.43364673,.00054239,97.3154,261.4919,29.1323,331.0227,0,U,55009,999,19665,.18175672E-3,.8024E-4,0
BRO-8,2023-001C,2026-07-15T21:45:50.706432,15.50779326,.00047978,97.3186,262.5376,37.3914,322.7671,0,U,55011,999,19665,.35076208E-3,.20141E-3,0
CONNECTA T1.2,2023-001D,2026-07-15T19:12:57.446496,15.52914784,.0003626,97.3240,268.0391,3.7336,356.3943,0,U,55012,999,19698,.43417891E-3,.26949E-3,0
BIRKELAND,2023-001G,2026-07-15T22:12:35.644320,15.40544704,.00063185,97.3334,264.9761,18.7548,341.3930,0,U,55015,999,19677,.12007138E-3,.4794E-4,0
ION SCV-008,2023-001AU,2026-07-15T20:12:20.795904,15.28884533,.00131835,97.5723,293.6465,270.6145,89.3584,0,U,55051,999,19571,.12428673E-3,.3416E-4,0
ION SCV-007,2023-001BD,2026-07-15T03:59:29.825088,14.77576135,.00110742,97.8993,258.6244,242.2989,117.7098,0,U,55060,999,19038,.33457925E-4,.188E-5,0
HUYGENS,2023-001CN,2026-07-15T22:12:42.978816,15.40544543,.00083261,97.3237,264.1684,350.1928,9.9155,0,U,55093,999,19679,.12115818E-3,.484E-4,0
